[ {
  "OBJECT_ID": "1999-070A",
  "OBJECT_NAME": "KOMPSAT",
  "NORAD_CAT_ID": "26032",
  "OBJECT_TYPE": "PAYLOAD",
  "PERIOD": "98.034",
  "INCLINATION": "97.8339",
  "APOGEE": "668.585",
  "PERIGEE": "660.773",
  "ECCENTRICITY": "0.0005546",
  "MEAN_MOTION": "14.68870113",
  "TLE_LINE1": "1 26032U 99070A   16239.48316973  .00000248  00000-0  50393-4 0  9998",
  "TLE_LINE2": "2 26032  97.8339  30.4100 0005546 131.6608 228.5081 14.68870113892652",
  "LAUNCH_DATE": "1999-12-21",
  "LAUNCH_SITE": "AIR FORCE WESTERN TEST RANGE",
  "OWNER": "SOUTH KOREA",
  "ORBIT_TYPE": "Low Earth Orbit",
  "OPERATIONAL_STATUS": "Nonoperational"
}, {
  "OBJECT_ID": "1999-070B",
  "OBJECT_NAME": "ACRIMSAT",
  "NORAD_CAT_ID": "26033",
  "OBJECT_TYPE": "PAYLOAD",
  "PERIOD": "98.488",
  "INCLINATION": "97.8947",
  "APOGEE": "705.989",
  "PERIGEE": "666.866",
  "ECCENTRICITY": "0.002769",
  "MEAN_MOTION": "14.62092335",
  "TLE_LINE1": "1 26033U 99070B   16238.91633554 +.00000086 +00000-0 +25981-4 0  9998",
  "TLE_LINE2": "2 26033 097.8947 026.7814 0027690 193.4211 166.6257 14.62092335889084",
  "LAUNCH_DATE": "1999-12-21",
  "LAUNCH_SITE": "AIR FORCE WESTERN TEST RANGE",
  "OWNER": "UNITED STATES OF AMERICA",
  "ORBIT_TYPE": "Low Earth Orbit",
  "OPERATIONAL_STATUS": "Nonoperational"
}, {
  "OBJECT_ID": "2000-004C",
  "OBJECT_NAME": "OPAL",
  "NORAD_CAT_ID": "26063",
  "OBJECT_TYPE": "PAYLOAD",
  "PERIOD": "100.234",
  "INCLINATION": "100.1917",
  "APOGEE": "796.251",
  "PERIGEE": "743.072",
  "ECCENTRICITY": "0.00372",
  "MEAN_MOTION": "14.36628446",
  "TLE_LINE1": "1 26063U 00004C   16238.92747535  .00000001  00000-0  20083-4 0  9991",
  "TLE_LINE2": "2 26063 100.1917 182.0378 0037200  61.3428 299.1485 14.36628446868995",
  "LAUNCH_DATE": "2000-01-27",
  "LAUNCH_SITE": "AIR FORCE WESTERN TEST RANGE",
  "OWNER": "UNITED STATES OF AMERICA",
  "ORBIT_TYPE": "Low Earth Orbit",
  "OPERATIONAL_STATUS": "Nonoperational"
}, {
  "OBJECT_ID": "2000-004D",
  "OBJECT_NAME": "FALCONSAT",
  "NORAD_CAT_ID": "26064",
  "OBJECT_TYPE": "PAYLOAD",
  "PERIOD": "100.272",
  "INCLINATION": "100.1909",
  "APOGEE": "798.958",
  "PERIGEE": "743.916",
  "ECCENTRICITY": "0.0038493",
  "MEAN_MOTION": "14.3609328",
  "TLE_LINE1": "1 26064U 00004D   16238.87732086 -.00000015 +00000-0 +14927-4 0  9997",
  "TLE_LINE2": "2 26064 100.1909 178.0859 0038493 074.3721 286.1702 14.36093280868463",
  "LAUNCH_DATE": "2000-01-27",
  "LAUNCH_SITE": "AIR FORCE WESTERN TEST RANGE",
  "OWNER": "UNITED STATES OF AMERICA",
  "ORBIT_TYPE": "Low Earth Orbit",
  "OPERATIONAL_STATUS": "Nonoperational"
}, {
  "OBJECT_ID": "2000-008B",
  "OBJECT_NAME": "GLOBALSTAR M062",
  "NORAD_CAT_ID": "26082",
  "OBJECT_TYPE": "PAYLOAD",
  "PERIOD": "115.817",
  "INCLINATION": "51.9831",
  "APOGEE": "1497.888",
  "PERIGEE": "1487.105",
  "ECCENTRICITY": "0.000685",
  "MEAN_MOTION": "12.43335635",
  "TLE_LINE1": "1 26082U 00008B   16239.10162473 -.00000072  00000-0  18871-3 0  9999",
  "TLE_LINE2": "2 26082  51.9831 194.8420 0006850  75.7163   3.8685 12.43335635758929",
  "LAUNCH_DATE": "2000-02-08",
  "LAUNCH_SITE": "AIR FORCE EASTERN TEST RANGE",
  "OWNER": "GLOBALSTAR",
  "ORBIT_TYPE": "Low Earth Orbit",
  "OPERATIONAL_STATUS": "Nonoperational"
}, {
  "OBJECT_ID": "2000-008C",
  "OBJECT_NAME": "GLOBALSTAR M060",
  "NORAD_CAT_ID": "26083",
  "OBJECT_TYPE": "PAYLOAD",
  "PERIOD": "118.269",
  "INCLINATION": "52.0021",
  "APOGEE": "1605.823",
  "PERIGEE": "1600.595",
  "ECCENTRICITY": "0.0003275",
  "MEAN_MOTION": "12.17555171",
  "TLE_LINE1": "1 26083U 00008C   16238.91830435 +.00000017 +00000-0 +10708-2 0  9996",
  "TLE_LINE2": "2 26083 052.0021 060.4474 0003275 047.6875 100.6406 12.17555171760623",
  "LAUNCH_DATE": "2000-02-08",
  "LAUNCH_SITE": "AIR FORCE EASTERN TEST RANGE",
  "OWNER": "GLOBALSTAR",
  "ORBIT_TYPE": "Low Earth Orbit",
  "OPERATIONAL_STATUS": "Nonoperational"
}, {
  "OBJECT_ID": "2000-008D",
  "OBJECT_NAME": "GLOBALSTAR M064",
  "NORAD_CAT_ID": "26084",
  "OBJECT_TYPE": "PAYLOAD",
  "PERIOD": "121.164",
  "INCLINATION": "52.0028",
  "APOGEE": "1734.736",
  "PERIGEE": "1731.120",
  "ECCENTRICITY": "0.0002229",
  "MEAN_MOTION": "11.88464038",
  "TLE_LINE1": "1 26084U 00008D   16238.88614912 -.00000072 +00000-0 +15364-3 0  9999",
  "TLE_LINE2": "2 26084 052.0028 080.9291 0002229 020.5879 339.5043 11.88464038784665",
  "LAUNCH_DATE": "2000-02-08",
  "LAUNCH_SITE": "AIR FORCE EASTERN TEST RANGE",
  "OWNER": "GLOBALSTAR",
  "ORBIT_TYPE": "Low Earth Orbit",
  "OPERATIONAL_STATUS": "Nonoperational"
}, {
  "OBJECT_ID": "2000-033A",
  "OBJECT_NAME": "NADEZHDA 6",
  "NORAD_CAT_ID": "26384",
  "OBJECT_TYPE": "PAYLOAD",
  "PERIOD": "98.209",
  "INCLINATION": "98.0547",
  "APOGEE": "683.026",
  "PERIGEE": "663.095",
  "ECCENTRICITY": "0.0014133",
  "MEAN_MOTION": "14.66251815",
  "TLE_LINE1": "1 26384U 00033A   16239.44423527  .00000026  00000-0  13416-4 0  9998",
  "TLE_LINE2": "2 26384  98.0547 305.4687 0014133 240.9201 119.0592 14.66251815863611",
  "LAUNCH_DATE": "2000-06-28",
  "LAUNCH_SITE": "PLESETSK MISSILE AND SPACE COMPLEX",
  "OWNER": "COMMONWEALTH OF INDEPENDENT STATES",
  "ORBIT_TYPE": "Low Earth Orbit",
  "OPERATIONAL_STATUS": "Nonoperational"
}, {
  "OBJECT_ID": "2000-055A",
  "OBJECT_NAME": "NOAA 16",
  "NORAD_CAT_ID": "26536",
  "OBJECT_TYPE": "PAYLOAD",
  "PERIOD": "101.899",
  "INCLINATION": "98.8924",
  "APOGEE": "856.979",
  "PERIGEE": "840.228",
  "ECCENTRICITY": "0.001159",
  "MEAN_MOTION": "14.13153048",
  "TLE_LINE1": "1 26536U 00055A   16239.46231716 -.00000024  00000-0  10857-4 0  9995",
  "TLE_LINE2": "2 26536  98.8924 308.7617 0011590  79.0624 281.1852 14.13153048821288",
  "LAUNCH_DATE": "2000-09-21",
  "LAUNCH_SITE": "AIR FORCE WESTERN TEST RANGE",
  "OWNER": "UNITED STATES OF AMERICA",
  "ORBIT_TYPE": "Low Earth Orbit",
  "OPERATIONAL_STATUS": "Nonoperational"
}, {
  "OBJECT_ID": "2000-057A",
  "OBJECT_NAME": "SAUDISAT 1A",
  "NORAD_CAT_ID": "26545",
  "OBJECT_TYPE": "PAYLOAD",
  "PERIOD": "96.995",
  "INCLINATION": "64.5539",
  "APOGEE": "654.194",
  "PERIGEE": "575.479",
  "ECCENTRICITY": "0.0056281",
  "MEAN_MOTION": "14.84602166",
  "TLE_LINE1": "1 26545U 00057A   16239.09637477  .00000035  00000-0  22073-4 0  9994",
  "TLE_LINE2": "2 26545  64.5539 282.2695 0056281 268.9122  90.5537 14.84602166860531",
  "LAUNCH_DATE": "2000-09-26",
  "LAUNCH_SITE": "TYURATAM MISSILE AND SPACE COMPLEX",
  "OWNER": "SAUDI ARABIA",
  "ORBIT_TYPE": "Low Earth Orbit",
  "OPERATIONAL_STATUS": "Nonoperational"
}, {
  "OBJECT_ID": "2000-057B",
  "OBJECT_NAME": "MEGSAT 1",
  "NORAD_CAT_ID": "26546",
  "OBJECT_TYPE": "PAYLOAD",
  "PERIOD": "96.625",
  "INCLINATION": "64.5545",
  "APOGEE": "630.185",
  "PERIGEE": "563.844",
  "ECCENTRICITY": "0.0047555",
  "MEAN_MOTION": "14.90295712",
  "TLE_LINE1": "1 26546U 00057B   16239.39283829  .00000172  00000-0  33749-4 0  9990",
  "TLE_LINE2": "2 26546  64.5545 177.8551 0047555 260.2583  99.3154 14.90295712862726",
  "LAUNCH_DATE": "2000-09-26",
  "LAUNCH_SITE": "TYURATAM MISSILE AND SPACE COMPLEX",
  "OWNER": "ITALY",
  "ORBIT_TYPE": "Low Earth Orbit",
  "OPERATIONAL_STATUS": "Nonoperational"
}, {
  "OBJECT_ID": "2000-057C",
  "OBJECT_NAME": "UNISAT",
  "NORAD_CAT_ID": "26547",
  "OBJECT_TYPE": "PAYLOAD",
  "PERIOD": "96.674",
  "INCLINATION": "64.5492",
  "APOGEE": "640.827",
  "PERIGEE": "557.969",
  "ECCENTRICITY": "0.0059375",
  "MEAN_MOTION": "14.89531991",
  "TLE_LINE1": "1 26547U 00057C   16239.35233125  .00000265  00000-0  43594-4 0  9993",
  "TLE_LINE2": "2 26547  64.5492 227.4356 0059375 271.5043  87.9265 14.89531991861671",
  "LAUNCH_DATE": "2000-09-26",
  "LAUNCH_SITE": "TYURATAM MISSILE AND SPACE COMPLEX",
  "OWNER": "ITALY",
  "ORBIT_TYPE": "Low Earth Orbit",
  "OPERATIONAL_STATUS": "Nonoperational"
}, {
  "OBJECT_ID": "2000-057D",
  "OBJECT_NAME": "TIUNGSAT 1",
  "NORAD_CAT_ID": "26548",
  "OBJECT_TYPE": "PAYLOAD",
  "PERIOD": "96.722",
  "INCLINATION": "64.5504",
  "APOGEE": "636.898",
  "PERIGEE": "566.495",
  "ECCENTRICITY": "0.0050433",
  "MEAN_MOTION": "14.88796509",
  "TLE_LINE1": "1 26548U 00057D   16239.50017455  .00000160  00000-0  33529-4 0  9998",
  "TLE_LINE2": "2 26548  64.5504 200.7770 0050433 263.9112  95.6249 14.88796509862225",
  "LAUNCH_DATE": "2000-09-26",
  "LAUNCH_SITE": "TYURATAM MISSILE AND SPACE COMPLEX",
  "OWNER": "MALAYSIA",
  "ORBIT_TYPE": "Low Earth Orbit",
  "OPERATIONAL_STATUS": "Nonoperational"
}, {
  "OBJECT_ID": "2000-057E",
  "OBJECT_NAME": "SAUDISAT 1B",
  "NORAD_CAT_ID": "26549",
  "OBJECT_TYPE": "PAYLOAD",
  "PERIOD": "97.085",
  "INCLINATION": "64.5555",
  "APOGEE": "661.119",
  "PERIGEE": "577.188",
  "ECCENTRICITY": "0.0059974",
  "MEAN_MOTION": "14.83228574",
  "TLE_LINE1": "1 26549U 00057E   16239.21897642  .00000040  00000-0  23228-4 0  9993",
  "TLE_LINE2": "2 26549  64.5555 314.2329 0059974 272.4410  86.9831 14.83228574859894",
  "LAUNCH_DATE": "2000-09-26",
  "LAUNCH_SITE": "TYURATAM MISSILE AND SPACE COMPLEX",
  "OWNER": "SAUDI ARABIA",
  "ORBIT_TYPE": "Low Earth Orbit",
  "OPERATIONAL_STATUS": "Nonoperational"
}, {
  "OBJECT_ID": "2000-061A",
  "OBJECT_NAME": "HETE 2",
  "NORAD_CAT_ID": "26561",
  "OBJECT_TYPE": "PAYLOAD",
  "PERIOD": "95.570",
  "INCLINATION": "1.9492",
  "APOGEE": "559.105",
  "PERIGEE": "533.248",
  "ECCENTRICITY": "0.0018671",
  "MEAN_MOTION": "15.06738322",
  "TLE_LINE1": "1 26561U 00061A   16238.15073037  .00001569  00000-0  44308-4 0  9997",
  "TLE_LINE2": "2 26561   1.9492 119.7553 0018671 190.6947 169.2698 15.06738322870112",
  "LAUNCH_DATE": "2000-10-09",
  "LAUNCH_SITE": "Kwajalein",
  "OWNER": "UNITED STATES OF AMERICA",
  "ORBIT_TYPE": "Low Earth Orbit",
  "OPERATIONAL_STATUS": "Nonoperational"
}]